{
  "type": "FeatureCollection",
  "features": [
    {
      "type": "Feature",
      "properties": {
        "norad_id": 50032,
        "name": "COSMOS 1408 DEB",
        "group": "cosmos-1408-debris",
        "lat": 2.8115098209547145,
        "lon": -130.49335679035119,
        "alt_km": 420.95821473310116,
        "timestamp": "2025-12-21T03:56:51.107309+00:00",
        "meta_object_name": "COSMOS 1408 DEB",
        "meta_object_id": "1982-092RU",
        "meta_epoch": "2025-12-20T14:45:17.705664",
        "meta_mean_motion": 15.45767226,
        "meta_eccentricity": 0.0016015,
        "meta_inclination": 82.5637,
        "meta_ra_of_asc_node": 50.4376,
        "meta_arg_of_pericenter": 179.1551,
        "meta_mean_anomaly": 180.9729,
        "meta_ephemeris_type": 0,
        "meta_classification_type": "U",
        "meta_norad_cat_id": 50032,
        "meta_element_set_no": 999,
        "meta_rev_at_epoch": 22725,
        "meta_bstar": 7.5967e-05,
        "meta_mean_motion_dot": 3.734e-05,
        "meta_mean_motion_ddot": 0,
        "tle_line1": "1 50032U 82092RU  25354.61478826  .00003734  00000+0  75967-4 0  9996",
        "tle_line2": "2 50032  82.5637  50.4376 0016015 179.1551 180.9729 15.45767226227259"
      },
      "geometry": {
        "type": "Point",
        "coordinates": [
          -130.49335679035119,
          2.8115098209547145
        ]
      }
    },
    {
      "type": "Feature",
      "properties": {
        "norad_id": 50058,
        "name": "COSMOS 1408 DEB",
        "group": "cosmos-1408-debris",
        "lat": -42.353675549869244,
        "lon": -112.68522933327468,
        "alt_km": 390.88596338054685,
        "timestamp": "2025-12-21T03:56:51.107325+00:00",
        "meta_object_name": "COSMOS 1408 DEB",
        "meta_object_id": "1982-092SW",
        "meta_epoch": "2025-12-20T17:47:22.881120",
        "meta_mean_motion": 15.6455551,
        "meta_eccentricity": 0.0016189,
        "meta_inclination": 82.6127,
        "meta_ra_of_asc_node": 60.9651,
        "meta_arg_of_pericenter": 71.6171,
        "meta_mean_anomaly": 288.6847,
        "meta_ephemeris_type": 0,
        "meta_classification_type": "U",
        "meta_norad_cat_id": 50058,
        "meta_element_set_no": 999,
        "meta_rev_at_epoch": 22929,
        "meta_bstar": 0.00023339,
        "meta_mean_motion_dot": 0.000227,
        "meta_mean_motion_ddot": 0,
        "tle_line1": "1 50058U 82092SW  25354.74123705  .00022700  00000+0  23339-3 0  9990",
        "tle_line2": "2 50058  82.6127  60.9651 0016189  71.6171 288.6847 15.64555510229295"
      },
      "geometry": {
        "type": "Point",
        "coordinates": [
          -112.68522933327468,
          -42.353675549869244
        ]
      }
    },
    {
      "type": "Feature",
      "properties": {
        "norad_id": 50404,
        "name": "COSMOS 1408 DEB",
        "group": "cosmos-1408-debris",
        "lat": -79.80958739040246,
        "lon": 76.04536440330575,
        "alt_km": 533.2277193741866,
        "timestamp": "2025-12-21T03:56:51.107336+00:00",
        "meta_object_name": "COSMOS 1408 DEB",
        "meta_object_id": "1982-092ADS",
        "meta_epoch": "2025-12-20T20:27:26.540064",
        "meta_mean_motion": 15.14964314,
        "meta_eccentricity": 0.0168837,
        "meta_inclination": 82.2054,
        "meta_ra_of_asc_node": 206.7205,
        "meta_arg_of_pericenter": 171.102,
        "meta_mean_anomaly": 189.3275,
        "meta_ephemeris_type": 0,
        "meta_classification_type": "U",
        "meta_norad_cat_id": 50404,
        "meta_element_set_no": 999,
        "meta_rev_at_epoch": 21316,
        "meta_bstar": 0.002082,
        "meta_mean_motion_dot": 0.00056108,
        "meta_mean_motion_ddot": 0,
        "tle_line1": "1 50404U 82092ADS 25354.85239051  .00056108  00000+0  20820-2 0  9999",
        "tle_line2": "2 50404  82.2054 206.7205 0168837 171.1020 189.3275 15.14964314213169"
      },
      "geometry": {
        "type": "Point",
        "coordinates": [
          76.04536440330575,
          -79.80958739040246
        ]
      }
    },
    {
      "type": "Feature",
      "properties": {
        "norad_id": 50621,
        "name": "COSMOS 1408 DEB",
        "group": "cosmos-1408-debris",
        "lat": 12.012870378631726,
        "lon": 66.99953313349305,
        "alt_km": 404.19124017935246,
        "timestamp": "2025-12-21T03:56:51.107346+00:00",
        "meta_object_name": "COSMOS 1408 DEB",
        "meta_object_id": "1982-092ALR",
        "meta_epoch": "2025-12-20T15:33:22.898016",
        "meta_mean_motion": 15.57043156,
        "meta_eccentricity": 0.0029067,
        "meta_inclination": 82.5698,
        "meta_ra_of_asc_node": 65.946,
        "meta_arg_of_pericenter": 123.8284,
        "meta_mean_anomaly": 236.5744,
        "meta_ephemeris_type": 0,
        "meta_classification_type": "U",
        "meta_norad_cat_id": 50621,
        "meta_element_set_no": 999,
        "meta_rev_at_epoch": 22373,
        "meta_bstar": 0.00024864,
        "meta_mean_motion_dot": 0.00018378,
        "meta_mean_motion_ddot": 0,
        "tle_line1": "1 50621U 82092ALR 25354.64818169  .00018378  00000+0  24864-3 0  9990",
        "tle_line2": "2 50621  82.5698  65.9460 0029067 123.8284 236.5744 15.57043156223731"
      },
      "geometry": {
        "type": "Point",
        "coordinates": [
          66.99953313349305,
          12.012870378631726
        ]
      }
    }
  ]
}